HAWK-2A                 
1 47505U 21006CW  26068.67946547  .00008113  00000+0  25431-3 0  9990
2 47505  97.2459 115.6184 0006450 187.1463 172.9689 15.33304498284242
STARLINK-30426          
1 57848U 23141J   26068.88263382  .00001173  00000+0  51744-4 0  9991
2 57848  53.1598 283.2593 0001437 117.1697 242.9451 15.30189936140359
